{
  "type": "FeatureCollection",
  "features": [
    {
      "type": "Feature",
      "properties": {
        "norad_id": 35000,
        "name": "COSMOS 2251 DEB",
        "group": "cosmos-2251-debris",
        "lat": 27.817027764840542,
        "lon": -148.8622118444401,
        "alt_km": 312.98291575666644,
        "timestamp": "2025-12-10T18:57:00.460801+00:00",
        "meta_object_name": "COSMOS 2251 DEB",
        "meta_object_id": "1993-036AFY",
        "meta_epoch": "2025-12-10T00:39:45.535104",
        "meta_mean_motion": 15.84722247,
        "meta_eccentricity": 0.00096992,
        "meta_inclination": 73.9939,
        "meta_ra_of_asc_node": 204.1935,
        "meta_arg_of_pericenter": 175.3945,
        "meta_mean_anomaly": 184.7377,
        "meta_ephemeris_type": 0,
        "meta_classification_type": "U",
        "meta_norad_cat_id": 35000,
        "meta_element_set_no": 999,
        "meta_rev_at_epoch": 88472,
        "meta_bstar": 0.007821664,
        "meta_mean_motion_dot": 0.0209211,
        "meta_mean_motion_ddot": 0,
        "tle_line1": "1 35000U 93036AFY 25344.02761036  .02092110  00000+0  78217-2 0  9993",
        "tle_line2": "2 35000  73.9939 204.1935 0009699 175.3945 184.7377 15.84722247884729"
      },
      "geometry": {
        "type": "Point",
        "coordinates": [
          -148.8622118444401,
          27.817027764840542
        ]
      }
    },
    {
      "type": "Feature",
      "properties": {
        "norad_id": 35012,
        "name": "COSMOS 2251 DEB",
        "group": "cosmos-2251-debris",
        "lat": -2.479992286926651,
        "lon": 114.66498785421739,
        "alt_km": 754.422964198432,
        "timestamp": "2025-12-10T18:57:00.460811+00:00",
        "meta_object_name": "COSMOS 2251 DEB",
        "meta_object_id": "1993-036AFZ",
        "meta_epoch": "2025-12-10T08:59:46.936320",
        "meta_mean_motion": 14.45543822,
        "meta_eccentricity": 0.0081655,
        "meta_inclination": 74.0197,
        "meta_ra_of_asc_node": 116.1499,
        "meta_arg_of_pericenter": 256.7977,
        "meta_mean_anomaly": 102.4062,
        "meta_ephemeris_type": 0,
        "meta_classification_type": "U",
        "meta_norad_cat_id": 35012,
        "meta_element_set_no": 999,
        "meta_rev_at_epoch": 87527,
        "meta_bstar": 0.00029743,
        "meta_mean_motion_dot": 1.064e-05,
        "meta_mean_motion_ddot": 0,
        "tle_line1": "1 35012U 93036AFZ 25344.37484880  .00001064  00000+0  29743-3 0  9990",
        "tle_line2": "2 35012  74.0197 116.1499 0081655 256.7977 102.4062 14.45543822875272"
      },
      "geometry": {
        "type": "Point",
        "coordinates": [
          114.66498785421739,
          -2.479992286926651
        ]
      }
    },
    {
      "type": "Feature",
      "properties": {
        "norad_id": 35014,
        "name": "COSMOS 2251 DEB",
        "group": "cosmos-2251-debris",
        "lat": -68.57247448229313,
        "lon": -85.65707252902355,
        "alt_km": 647.2248211010237,
        "timestamp": "2025-12-10T18:57:00.460821+00:00",
        "meta_object_name": "COSMOS 2251 DEB",
        "meta_object_id": "1993-036AGB",
        "meta_epoch": "2025-12-10T11:17:04.408224",
        "meta_mean_motion": 14.75108648,
        "meta_eccentricity": 0.0007489,
        "meta_inclination": 73.9993,
        "meta_ra_of_asc_node": 47.9831,
        "meta_arg_of_pericenter": 224.1256,
        "meta_mean_anomaly": 135.932,
        "meta_ephemeris_type": 0,
        "meta_classification_type": "U",
        "meta_norad_cat_id": 35014,
        "meta_element_set_no": 999,
        "meta_rev_at_epoch": 71303,
        "meta_bstar": 0.0024781,
        "meta_mean_motion_dot": 0.00016732,
        "meta_mean_motion_ddot": 0,
        "tle_line1": "1 35014U 93036AGB 25344.47018991  .00016732  00000+0  24781-2 0  9993",
        "tle_line2": "2 35014  73.9993  47.9831 0007489 224.1256 135.9320 14.75108648713038"
      },
      "geometry": {
        "type": "Point",
        "coordinates": [
          -85.65707252902355,
          -68.57247448229313
        ]
      }
    },
    {
      "type": "Feature",
      "properties": {
        "norad_id": 35015,
        "name": "COSMOS 2251 DEB",
        "group": "cosmos-2251-debris",
        "lat": 53.37007189468706,
        "lon": 35.60660309083274,
        "alt_km": 679.6643977806643,
        "timestamp": "2025-12-10T18:57:00.460831+00:00",
        "meta_object_name": "COSMOS 2251 DEB",
        "meta_object_id": "1993-036AGC",
        "meta_epoch": "2025-12-08T23:19:05.687904",
        "meta_mean_motion": 14.46841193,
        "meta_eccentricity": 0.0074204,
        "meta_inclination": 73.9478,
        "meta_ra_of_asc_node": 241.8046,
        "meta_arg_of_pericenter": 111.6456,
        "meta_mean_anomaly": 265.9615,
        "meta_ephemeris_type": 0,
        "meta_classification_type": "U",
        "meta_norad_cat_id": 35015,
        "meta_element_set_no": 999,
        "meta_rev_at_epoch": 65386,
        "meta_bstar": 0.00095869,
        "meta_mean_motion_dot": 3.57e-05,
        "meta_mean_motion_ddot": 0,
        "tle_line1": "1 35015U 93036AGC 25342.97159361  .00003570  00000+0  95869-3 0  9996",
        "tle_line2": "2 35015  73.9478 241.8046 0074204 111.6456 265.9615 14.46841193653863"
      },
      "geometry": {
        "type": "Point",
        "coordinates": [
          35.60660309083274,
          53.37007189468706
        ]
      }
    },
    {
      "type": "Feature",
      "properties": {
        "norad_id": 35016,
        "name": "COSMOS 2251 DEB",
        "group": "cosmos-2251-debris",
        "lat": -45.816092612377524,
        "lon": 135.27569815209333,
        "alt_km": 701.1945466498819,
        "timestamp": "2025-12-10T18:57:00.460841+00:00",
        "meta_object_name": "COSMOS 2251 DEB",
        "meta_object_id": "1993-036AGD",
        "meta_epoch": "2025-12-08T20:51:00.921024",
        "meta_mean_motion": 14.35049629,
        "meta_eccentricity": 0.01147104,
        "meta_inclination": 73.9297,
        "meta_ra_of_asc_node": 301.5659,
        "meta_arg_of_pericenter": 219.3565,
        "meta_mean_anomaly": 169.132,
        "meta_ephemeris_type": 0,
        "meta_classification_type": "U",
        "meta_norad_cat_id": 35016,
        "meta_element_set_no": 999,
        "meta_rev_at_epoch": 86727,
        "meta_bstar": 0.00068117293,
        "meta_mean_motion_dot": 2.064e-05,
        "meta_mean_motion_ddot": 0,
        "tle_line1": "1 35016U 93036AGD 25342.86876066  .00002064  00000+0  68117-3 0  9996",
        "tle_line2": "2 35016  73.9297 301.5659 0114710 219.3565 169.1320 14.35049629867273"
      },
      "geometry": {
        "type": "Point",
        "coordinates": [
          135.27569815209333,
          -45.816092612377524
        ]
      }
    },
    {
      "type": "Feature",
      "properties": {
        "norad_id": 35018,
        "name": "COSMOS 2251 DEB",
        "group": "cosmos-2251-debris",
        "lat": 73.83041798258577,
        "lon": -164.43791861243398,
        "alt_km": 886.6867647812651,
        "timestamp": "2025-12-10T18:57:00.460851+00:00",
        "meta_object_name": "COSMOS 2251 DEB",
        "meta_object_id": "1993-036AGF",
        "meta_epoch": "2025-12-09T02:09:18.983520",
        "meta_mean_motion": 13.6710371,
        "meta_eccentricity": 0.03484817,
        "meta_inclination": 73.9755,
        "meta_ra_of_asc_node": 115.9927,
        "meta_arg_of_pericenter": 25.9742,
        "meta_mean_anomaly": 335.8405,
        "meta_ephemeris_type": 0,
        "meta_classification_type": "U",
        "meta_norad_cat_id": 35018,
        "meta_element_set_no": 999,
        "meta_rev_at_epoch": 83136,
        "meta_bstar": 0.00098119923,
        "meta_mean_motion_dot": 1.229e-05,
        "meta_mean_motion_ddot": 0,
        "tle_line1": "1 35018U 93036AGF 25343.08980305  .00001229  00000+0  98120-3 0  9994",
        "tle_line2": "2 35018  73.9755 115.9927 0348481  25.9742 335.8405 13.67103710831364"
      },
      "geometry": {
        "type": "Point",
        "coordinates": [
          -164.43791861243398,
          73.83041798258577
        ]
      }
    },
    {
      "type": "Feature",
      "properties": {
        "norad_id": 35020,
        "name": "COSMOS 2251 DEB",
        "group": "cosmos-2251-debris",
        "lat": 48.2167479117601,
        "lon": 4.015461222241018,
        "alt_km": 743.2524318992237,
        "timestamp": "2025-12-10T18:57:00.460861+00:00",
        "meta_object_name": "COSMOS 2251 DEB",
        "meta_object_id": "1993-036AGH",
        "meta_epoch": "2025-12-10T06:52:12.458784",
        "meta_mean_motion": 14.62799167,
        "meta_eccentricity": 0.009124,
        "meta_inclination": 74.0472,
        "meta_ra_of_asc_node": 203.6489,
        "meta_arg_of_pericenter": 318.3933,
        "meta_mean_anomaly": 41.0314,
        "meta_ephemeris_type": 0,
        "meta_classification_type": "U",
        "meta_norad_cat_id": 35020,
        "meta_element_set_no": 999,
        "meta_rev_at_epoch": 88202,
        "meta_bstar": 0.00022844,
        "meta_mean_motion_dot": 1.204e-05,
        "meta_mean_motion_ddot": 0,
        "tle_line1": "1 35020U 93036AGH 25344.28625531  .00001204  00000+0  22844-3 0  9990",
        "tle_line2": "2 35020  74.0472 203.6489 0091240 318.3933  41.0314 14.62799167882029"
      },
      "geometry": {
        "type": "Point",
        "coordinates": [
          4.015461222241018,
          48.2167479117601
        ]
      }
    }
  ]
}